MEV-2                   
1 46113U 20056B   26116.92162089  .00000000  00000+0  00000+0 0  9999
2 46113   0.0152  76.2041 0001267 357.4574 112.0034  1.00269811 80025
GALAXY 30 (G-30)        
1 46114U 20056C   26116.68317993  .00000000  00000+0  00000+0 0  9999
2 46114   0.0129 235.3307 0002479 173.0121 287.2804  1.00271187 20774
GAOFEN-13 01            
1 46610U 20071A   26116.94528100 -.00000373  00000+0  00000+0 0  9994
2 46610   0.3901  84.9499 0042031 122.7296 105.7367  1.00275968 20407
TIANTONG-1 2            
1 46916U 20082A   26116.94658100 -.00000368  00000+0  00000+0 0  9993
2 46916   0.8631 320.7928 0002035  63.3384 296.5149  1.00273304 20136
LUCAS (JDRS-1)          
1 47202U 20089A   26116.94261192 -.00000247  00000+0  00000+0 0  9996
2 47202   0.0053 301.6797 0002273  91.9365 251.4375  1.00273150 19900
SXM-7                   
1 47240U 20096A   26116.40582196 -.00000218  00000+0  00000+0 0  9995
2 47240   0.0409  88.7853 0004431  37.7515 148.8095  1.00271242  6922
CMS-01                  
1 47256U 20099A   26116.86693664 -.00000176  00000+0  00000+0 0  9991
2 47256   0.0633  87.6918 0004979 207.8416 314.4209  1.00272493 19689
TURKSAT 5A              
1 47306U 21001A   26116.93821619  .00000000  00000+0  00000+0 0  9997
2 47306   0.0077 209.0518 0000064 174.8997 199.6590  1.00269799 19457
TIANTONG-1 3            
1 47321U 21003A   26116.93800096 -.00000168  00000+0  00000+0 0  9998
2 47321   1.8002 336.2589 0003179  61.9300 235.9160  1.00269607 19440
TJS-6                   
1 47613U 21010A   26116.60225333  .00000032  00000+0  00000+0 0  9998
2 47613   0.4684  88.4096 0003021 312.2760 209.2609  1.00273977 19292
SHIYAN-9 (SY-9)         
1 47851U 21019A   26116.40270649 -.00000256  00000+0  00000+0 0  9998
2 47851  16.6411 303.1128 0015243  29.6463 173.1752  1.00264470 23611
SBIRS GEO-5 (USA 315)   
1 48618U 21042A   26116.87759036 -.00000288  00000+0  00000+0 0  9994
2 48618   5.1692 328.7485 0001421  65.5008 230.3450  1.00271625 18258
FENGYUN 4B              
1 48808U 21047A   26116.94250765  .00000000  00000+0  00000+0 0  9994
2 48808   0.0179  10.4230 0005489   2.8736 285.6155  1.00266490 18064
SXM-8                   
1 48838U 21049A   26116.23608123 -.00000218  00000+0  00000+0 0  9998
2 48838   0.0366  47.2748 0004565 349.1239 177.6778  1.00274270 18062
TIANLIAN 1-05           
1 49011U 21063A   26116.28342758  .00000097  00000+0  00000+0 0  9996
2 49011   1.4617  81.0728 0002672 261.5372 350.5176  1.00271590 17555
STAR ONE D2             
1 49055U 21069A   26116.33750579 -.00000277  00000+0  00000+0 0  9991
2 49055   0.0219 137.1018 0001078 289.2891 199.4706  1.00268999 17427
EUTELSAT QUANTUM        
1 49056U 21069B   26116.95176332  .00000115  00000+0  00000+0 0  9999
2 49056   0.0324  37.7767 0002423 356.7739 210.7228  1.00273767 17411
