[{"OBJECT_NAME":"MEV-2","OBJECT_ID":"2020-056B","EPOCH":"2026-04-26T22:07:08.044896","MEAN_MOTION":1.00269811,"ECCENTRICITY":0.00012675,"INCLINATION":0.0152,"RA_OF_ASC_NODE":76.2041,"ARG_OF_PERICENTER":357.4574,"MEAN_ANOMALY":112.0034,"EPHEMERIS_TYPE":0,"CLASSIFICATION_TYPE":"U","NORAD_CAT_ID":46113,"ELEMENT_SET_NO":999,"REV_AT_EPOCH":8002,"BSTAR":0,"MEAN_MOTION_DOT":0,"MEAN_MOTION_DDOT":0},{"OBJECT_NAME":"GALAXY 30 (G-30)","OBJECT_ID":"2020-056C","EPOCH":"2026-04-26T16:23:46.745952","MEAN_MOTION":1.00271187,"ECCENTRICITY":0.00024795,"INCLINATION":0.0129,"RA_OF_ASC_NODE":235.3307,"ARG_OF_PERICENTER":173.0121,"MEAN_ANOMALY":287.2804,"EPHEMERIS_TYPE":0,"CLASSIFICATION_TYPE":"U","NORAD_CAT_ID":46114,"ELEMENT_SET_NO":999,"REV_AT_EPOCH":2077,"BSTAR":0,"MEAN_MOTION_DOT":0,"MEAN_MOTION_DDOT":0},{"OBJECT_NAME":"GAOFEN-13 01","OBJECT_ID":"2020-071A","EPOCH":"2026-04-26T22:41:12.278400","MEAN_MOTION":1.00275968,"ECCENTRICITY":0.00420313,"INCLINATION":0.3901,"RA_OF_ASC_NODE":84.9499,"ARG_OF_PERICENTER":122.7296,"MEAN_ANOMALY":105.7367,"EPHEMERIS_TYPE":0,"CLASSIFICATION_TYPE":"U","NORAD_CAT_ID":46610,"ELEMENT_SET_NO":999,"REV_AT_EPOCH":2040,"BSTAR":0,"MEAN_MOTION_DOT":-3.73e-6,"MEAN_MOTION_DDOT":0},{"OBJECT_NAME":"TIANTONG-1 2","OBJECT_ID":"2020-082A","EPOCH":"2026-04-26T22:43:04.598400","MEAN_MOTION":1.00273304,"ECCENTRICITY":0.00020351,"INCLINATION":0.8631,"RA_OF_ASC_NODE":320.7928,"ARG_OF_PERICENTER":63.3384,"MEAN_ANOMALY":296.5149,"EPHEMERIS_TYPE":0,"CLASSIFICATION_TYPE":"U","NORAD_CAT_ID":46916,"ELEMENT_SET_NO":999,"REV_AT_EPOCH":2013,"BSTAR":0,"MEAN_MOTION_DOT":-3.68e-6,"MEAN_MOTION_DDOT":0},{"OBJECT_NAME":"LUCAS (JDRS-1)","OBJECT_ID":"2020-089A","EPOCH":"2026-04-26T22:37:21.669888","MEAN_MOTION":1.0027315,"ECCENTRICITY":0.00022737,"INCLINATION":0.0053,"RA_OF_ASC_NODE":301.6797,"ARG_OF_PERICENTER":91.9365,"MEAN_ANOMALY":251.4375,"EPHEMERIS_TYPE":0,"CLASSIFICATION_TYPE":"U","NORAD_CAT_ID":47202,"ELEMENT_SET_NO":999,"REV_AT_EPOCH":1990,"BSTAR":0,"MEAN_MOTION_DOT":-2.47e-6,"MEAN_MOTION_DDOT":0},{"OBJECT_NAME":"SXM-7","OBJECT_ID":"2020-096A","EPOCH":"2026-04-26T09:44:23.017344","MEAN_MOTION":1.00271242,"ECCENTRICITY":0.00044319,"INCLINATION":0.0409,"RA_OF_ASC_NODE":88.7853,"ARG_OF_PERICENTER":37.7515,"MEAN_ANOMALY":148.8095,"EPHEMERIS_TYPE":0,"CLASSIFICATION_TYPE":"U","NORAD_CAT_ID":47240,"ELEMENT_SET_NO":999,"REV_AT_EPOCH":692,"BSTAR":0,"MEAN_MOTION_DOT":-2.18e-6,"MEAN_MOTION_DDOT":0},{"OBJECT_NAME":"CMS-01","OBJECT_ID":"2020-099A","EPOCH":"2026-04-26T20:48:23.325696","MEAN_MOTION":1.00272493,"ECCENTRICITY":0.00049795,"INCLINATION":0.0633,"RA_OF_ASC_NODE":87.6918,"ARG_OF_PERICENTER":207.8416,"MEAN_ANOMALY":314.4209,"EPHEMERIS_TYPE":0,"CLASSIFICATION_TYPE":"U","NORAD_CAT_ID":47256,"ELEMENT_SET_NO":999,"REV_AT_EPOCH":1968,"BSTAR":0,"MEAN_MOTION_DOT":-1.76e-6,"MEAN_MOTION_DDOT":0},{"OBJECT_NAME":"TURKSAT 5A","OBJECT_ID":"2021-001A","EPOCH":"2026-04-26T22:31:01.878816","MEAN_MOTION":1.00269799,"ECCENTRICITY":6.48e-6,"INCLINATION":0.0077,"RA_OF_ASC_NODE":209.0518,"ARG_OF_PERICENTER":174.8997,"MEAN_ANOMALY":199.659,"EPHEMERIS_TYPE":0,"CLASSIFICATION_TYPE":"U","NORAD_CAT_ID":47306,"ELEMENT_SET_NO":999,"REV_AT_EPOCH":1945,"BSTAR":0,"MEAN_MOTION_DOT":0,"MEAN_MOTION_DDOT":0},{"OBJECT_NAME":"TIANTONG-1 3","OBJECT_ID":"2021-003A","EPOCH":"2026-04-26T22:30:43.282944","MEAN_MOTION":1.00269607,"ECCENTRICITY":0.00031791,"INCLINATION":1.8002,"RA_OF_ASC_NODE":336.2589,"ARG_OF_PERICENTER":61.93,"MEAN_ANOMALY":235.916,"EPHEMERIS_TYPE":0,"CLASSIFICATION_TYPE":"U","NORAD_CAT_ID":47321,"ELEMENT_SET_NO":999,"REV_AT_EPOCH":1944,"BSTAR":0,"MEAN_MOTION_DOT":-1.68e-6,"MEAN_MOTION_DDOT":0},{"OBJECT_NAME":"TJS-6","OBJECT_ID":"2021-010A","EPOCH":"2026-04-26T14:27:14.687712","MEAN_MOTION":1.00273977,"ECCENTRICITY":0.0003021,"INCLINATION":0.4684,"RA_OF_ASC_NODE":88.4096,"ARG_OF_PERICENTER":312.276,"MEAN_ANOMALY":209.2609,"EPHEMERIS_TYPE":0,"CLASSIFICATION_TYPE":"U","NORAD_CAT_ID":47613,"ELEMENT_SET_NO":999,"REV_AT_EPOCH":1929,"BSTAR":0,"MEAN_MOTION_DOT":3.2e-7,"MEAN_MOTION_DDOT":0},{"OBJECT_NAME":"SHIYAN-9 (SY-9)","OBJECT_ID":"2021-019A","EPOCH":"2026-04-26T09:39:53.840736","MEAN_MOTION":1.0026447,"ECCENTRICITY":0.0015243,"INCLINATION":16.6411,"RA_OF_ASC_NODE":303.1128,"ARG_OF_PERICENTER":29.6463,"MEAN_ANOMALY":173.1752,"EPHEMERIS_TYPE":0,"CLASSIFICATION_TYPE":"U","NORAD_CAT_ID":47851,"ELEMENT_SET_NO":999,"REV_AT_EPOCH":2361,"BSTAR":0,"MEAN_MOTION_DOT":-2.56e-6,"MEAN_MOTION_DDOT":0},{"OBJECT_NAME":"SBIRS GEO-5 (USA 315)","OBJECT_ID":"2021-042A","EPOCH":"2026-04-26T21:03:43.807104","MEAN_MOTION":1.00271625,"ECCENTRICITY":0.0001421,"INCLINATION":5.1692,"RA_OF_ASC_NODE":328.7485,"ARG_OF_PERICENTER":65.5008,"MEAN_ANOMALY":230.345,"EPHEMERIS_TYPE":0,"CLASSIFICATION_TYPE":"U","NORAD_CAT_ID":48618,"ELEMENT_SET_NO":999,"REV_AT_EPOCH":1825,"BSTAR":0,"MEAN_MOTION_DOT":-2.88e-6,"MEAN_MOTION_DDOT":0},{"OBJECT_NAME":"FENGYUN 4B","OBJECT_ID":"2021-047A","EPOCH":"2026-04-26T22:37:12.660960","MEAN_MOTION":1.0026649,"ECCENTRICITY":0.0005489,"INCLINATION":0.0179,"RA_OF_ASC_NODE":10.423,"ARG_OF_PERICENTER":2.8736,"MEAN_ANOMALY":285.6155,"EPHEMERIS_TYPE":0,"CLASSIFICATION_TYPE":"U","NORAD_CAT_ID":48808,"ELEMENT_SET_NO":999,"REV_AT_EPOCH":1806,"BSTAR":0,"MEAN_MOTION_DOT":0,"MEAN_MOTION_DDOT":0},{"OBJECT_NAME":"SXM-8","OBJECT_ID":"2021-049A","EPOCH":"2026-04-26T05:39:57.418272","MEAN_MOTION":1.0027427,"ECCENTRICITY":0.00045654,"INCLINATION":0.0366,"RA_OF_ASC_NODE":47.2748,"ARG_OF_PERICENTER":349.1239,"MEAN_ANOMALY":177.6778,"EPHEMERIS_TYPE":0,"CLASSIFICATION_TYPE":"U","NORAD_CAT_ID":48838,"ELEMENT_SET_NO":999,"REV_AT_EPOCH":1806,"BSTAR":0,"MEAN_MOTION_DOT":-2.18e-6,"MEAN_MOTION_DDOT":0},{"OBJECT_NAME":"TIANLIAN 1-05","OBJECT_ID":"2021-063A","EPOCH":"2026-04-26T06:48:08.142912","MEAN_MOTION":1.0027159,"ECCENTRICITY":0.00026721,"INCLINATION":1.4617,"RA_OF_ASC_NODE":81.0728,"ARG_OF_PERICENTER":261.5372,"MEAN_ANOMALY":350.5176,"EPHEMERIS_TYPE":0,"CLASSIFICATION_TYPE":"U","NORAD_CAT_ID":49011,"ELEMENT_SET_NO":999,"REV_AT_EPOCH":1755,"BSTAR":0,"MEAN_MOTION_DOT":9.7e-7,"MEAN_MOTION_DDOT":0},{"OBJECT_NAME":"STAR ONE D2","OBJECT_ID":"2021-069A","EPOCH":"2026-04-26T08:06:00.500256","MEAN_MOTION":1.00268999,"ECCENTRICITY":0.00010786,"INCLINATION":0.0219,"RA_OF_ASC_NODE":137.1018,"ARG_OF_PERICENTER":289.2891,"MEAN_ANOMALY":199.4706,"EPHEMERIS_TYPE":0,"CLASSIFICATION_TYPE":"U","NORAD_CAT_ID":49055,"ELEMENT_SET_NO":999,"REV_AT_EPOCH":1742,"BSTAR":0,"MEAN_MOTION_DOT":-2.77e-6,"MEAN_MOTION_DDOT":0},{"OBJECT_NAME":"EUTELSAT QUANTUM","OBJECT_ID":"2021-069B","EPOCH":"2026-04-26T22:50:32.350848","MEAN_MOTION":1.00273767,"ECCENTRICITY":0.00024238,"INCLINATION":0.0324,"RA_OF_ASC_NODE":37.7767,"ARG_OF_PERICENTER":356.7739,"MEAN_ANOMALY":210.7228,"EPHEMERIS_TYPE":0,"CLASSIFICATION_TYPE":"U","NORAD_CAT_ID":49056,"ELEMENT_SET_NO":999,"REV_AT_EPOCH":1741,"BSTAR":0,"MEAN_MOTION_DOT":1.15e-6,"MEAN_MOTION_DDOT":0}]
